ONEWEB-0184             
1 48211U 21031B   25314.77011224 -.00000147  00000+0 -43071-3 0  9993
2 48211  87.9005 333.1924 0002701  93.9296 266.2143 13.14502270219595
ONEWEB-0179             
1 48212U 21031C   25314.13182461  .00000162  00000+0  40117-3 0  9999
2 48212  87.8997 333.3302 0001779  89.1856 270.9477 13.14503963219558
ONEWEB-0180             
1 48213U 21031D   25314.77326664 -.00000475  00000+0 -13162-2 0  9993
2 48213  87.9006 333.1983 0002036  85.0624 275.0738 13.14501808219528
ONEWEB-0218             
1 48214U 21031E   25314.79547934  .00000068  00000+0  14841-3 0  9993
2 48214  87.9002 333.1944 0002774  88.6113 271.5334 13.14504197219687
ONEWEB-0209             
1 48215U 21031F   25314.47989487 -.00000144  00000+0 -42276-3 0  9992
2 48215  87.8999 333.2974 0001848  87.2429 272.8912 13.14504882219645
ONEWEB-0198             
1 48216U 21031G   25314.76866144 -.00000191  00000+0 -55032-3 0  9995
2 48216  87.8995 333.2369 0002210  84.2597 275.8785 13.14501175219796
ONEWEB-0189             
1 48217U 21031H   25314.78120734 -.00000218  00000+0 -62124-3 0  9996
2 48217  87.8992 333.2074 0002120  85.8189 274.3183 13.14501087219531
ONEWEB-0196             
1 48218U 21031J   25314.75899723 -.00000071  00000+0 -22612-3 0  9990
2 48218  87.8998 333.2272 0001976  88.7050 271.4306 13.14500655219530
ONEWEB-0183             
1 48219U 21031K   25314.80974582  .00000238  00000+0  60630-3 0  9999
2 48219  87.8985 333.2235 0001603  90.6016 269.5297 13.14504122219638
ONEWEB-0185             
1 48220U 21031L   25314.75981025 -.00000017  00000+0 -80725-4 0  9990
2 48220  87.8997 333.2040 0001642  80.2551 279.8764 13.14502548219553
ONEWEB-0187             
1 48221U 21031M   25314.81595222  .00000201  00000+0  50835-3 0  9999
2 48221  87.8991 333.2382 0001853  83.2656 276.8685 13.14500681219577
ONEWEB-0192             
1 48222U 21031N   25314.86207510 -.00000116  00000+0 -34689-3 0  9991
2 48222  87.8988 333.2203 0001903  92.1443 267.9904 13.14504033219496
ONEWEB-0219             
1 48223U 21031P   25314.84145586 -.00000069  00000+0 -22019-3 0  9995
2 48223  87.8995 333.1995 0001751  84.0278 276.1052 13.14500947219697
ONEWEB-0202             
1 48224U 21031Q   25314.97468817  .00000147  00000+0  36138-3 0  9997
2 48224  87.8991 333.1867 0002523  83.8905 276.2512 13.14503637219695
ONEWEB-0204             
1 48225U 21031R   25314.78041645 -.00000286  00000+0 -80663-3 0  9991
2 48225  87.8994 333.2134 0001536  92.9145 267.2161 13.14500768219565
ONEWEB-0205             
1 48226U 21031S   25314.98417998  .00000011  00000+0 -55419-5 0  9990
2 48226  87.8999 333.1663 0001790  87.0663 273.0672 13.14501931219609
