[{"OBJECT_NAME":"ONEWEB-0184","OBJECT_ID":"2021-031B","EPOCH":"2025-11-10T18:28:57.697536","MEAN_MOTION":13.1450227,"ECCENTRICITY":0.00027018,"INCLINATION":87.9005,"RA_OF_ASC_NODE":333.1924,"ARG_OF_PERICENTER":93.9296,"MEAN_ANOMALY":266.2143,"EPHEMERIS_TYPE":0,"CLASSIFICATION_TYPE":"U","NORAD_CAT_ID":48211,"ELEMENT_SET_NO":999,"REV_AT_EPOCH":21959,"BSTAR":-0.00043070598,"MEAN_MOTION_DOT":-1.47e-6,"MEAN_MOTION_DDOT":0},{"OBJECT_NAME":"ONEWEB-0179","OBJECT_ID":"2021-031C","EPOCH":"2025-11-10T03:09:49.646304","MEAN_MOTION":13.14503963,"ECCENTRICITY":0.00017799,"INCLINATION":87.8997,"RA_OF_ASC_NODE":333.3302,"ARG_OF_PERICENTER":89.1856,"MEAN_ANOMALY":270.9477,"EPHEMERIS_TYPE":0,"CLASSIFICATION_TYPE":"U","NORAD_CAT_ID":48212,"ELEMENT_SET_NO":999,"REV_AT_EPOCH":21955,"BSTAR":0.00040117143,"MEAN_MOTION_DOT":1.62e-6,"MEAN_MOTION_DDOT":0},{"OBJECT_NAME":"ONEWEB-0180","OBJECT_ID":"2021-031D","EPOCH":"2025-11-10T18:33:30.237696","MEAN_MOTION":13.14501808,"ECCENTRICITY":0.00020365,"INCLINATION":87.9006,"RA_OF_ASC_NODE":333.1983,"ARG_OF_PERICENTER":85.0624,"MEAN_ANOMALY":275.0738,"EPHEMERIS_TYPE":0,"CLASSIFICATION_TYPE":"U","NORAD_CAT_ID":48213,"ELEMENT_SET_NO":999,"REV_AT_EPOCH":21952,"BSTAR":-0.0013161618,"MEAN_MOTION_DOT":-4.75e-6,"MEAN_MOTION_DDOT":0},{"OBJECT_NAME":"ONEWEB-0218","OBJECT_ID":"2021-031E","EPOCH":"2025-11-10T19:05:29.414976","MEAN_MOTION":13.14504197,"ECCENTRICITY":0.00027743,"INCLINATION":87.9002,"RA_OF_ASC_NODE":333.1944,"ARG_OF_PERICENTER":88.6113,"MEAN_ANOMALY":271.5334,"EPHEMERIS_TYPE":0,"CLASSIFICATION_TYPE":"U","NORAD_CAT_ID":48214,"ELEMENT_SET_NO":999,"REV_AT_EPOCH":21968,"BSTAR":0.00014840878,"MEAN_MOTION_DOT":6.8e-7,"MEAN_MOTION_DDOT":0},{"OBJECT_NAME":"ONEWEB-0209","OBJECT_ID":"2021-031F","EPOCH":"2025-11-10T11:31:02.916768","MEAN_MOTION":13.14504882,"ECCENTRICITY":0.00018489,"INCLINATION":87.8999,"RA_OF_ASC_NODE":333.2974,"ARG_OF_PERICENTER":87.2429,"MEAN_ANOMALY":272.8912,"EPHEMERIS_TYPE":0,"CLASSIFICATION_TYPE":"U","NORAD_CAT_ID":48215,"ELEMENT_SET_NO":999,"REV_AT_EPOCH":21964,"BSTAR":-0.00042275769,"MEAN_MOTION_DOT":-1.44e-6,"MEAN_MOTION_DDOT":0},{"OBJECT_NAME":"ONEWEB-0198","OBJECT_ID":"2021-031G","EPOCH":"2025-11-10T18:26:52.348416","MEAN_MOTION":13.14501175,"ECCENTRICITY":0.00022109,"INCLINATION":87.8995,"RA_OF_ASC_NODE":333.2369,"ARG_OF_PERICENTER":84.2597,"MEAN_ANOMALY":275.8785,"EPHEMERIS_TYPE":0,"CLASSIFICATION_TYPE":"U","NORAD_CAT_ID":48216,"ELEMENT_SET_NO":999,"REV_AT_EPOCH":21979,"BSTAR":-0.00055031608,"MEAN_MOTION_DOT":-1.91e-6,"MEAN_MOTION_DDOT":0},{"OBJECT_NAME":"ONEWEB-0189","OBJECT_ID":"2021-031H","EPOCH":"2025-11-10T18:44:56.314176","MEAN_MOTION":13.14501087,"ECCENTRICITY":0.00021206,"INCLINATION":87.8992,"RA_OF_ASC_NODE":333.2074,"ARG_OF_PERICENTER":85.8189,"MEAN_ANOMALY":274.3183,"EPHEMERIS_TYPE":0,"CLASSIFICATION_TYPE":"U","NORAD_CAT_ID":48217,"ELEMENT_SET_NO":999,"REV_AT_EPOCH":21953,"BSTAR":-0.00062124056,"MEAN_MOTION_DOT":-2.18e-6,"MEAN_MOTION_DDOT":0},{"OBJECT_NAME":"ONEWEB-0196","OBJECT_ID":"2021-031J","EPOCH":"2025-11-10T18:12:57.360672","MEAN_MOTION":13.14500655,"ECCENTRICITY":0.00019761,"INCLINATION":87.8998,"RA_OF_ASC_NODE":333.2272,"ARG_OF_PERICENTER":88.705,"MEAN_ANOMALY":271.4306,"EPHEMERIS_TYPE":0,"CLASSIFICATION_TYPE":"U","NORAD_CAT_ID":48218,"ELEMENT_SET_NO":999,"REV_AT_EPOCH":21953,"BSTAR":-0.0002261231,"MEAN_MOTION_DOT":-7.1e-7,"MEAN_MOTION_DDOT":0},{"OBJECT_NAME":"ONEWEB-0183","OBJECT_ID":"2021-031K","EPOCH":"2025-11-10T19:26:02.038848","MEAN_MOTION":13.14504122,"ECCENTRICITY":0.00016035,"INCLINATION":87.8985,"RA_OF_ASC_NODE":333.2235,"ARG_OF_PERICENTER":90.6016,"MEAN_ANOMALY":269.5297,"EPHEMERIS_TYPE":0,"CLASSIFICATION_TYPE":"U","NORAD_CAT_ID":48219,"ELEMENT_SET_NO":999,"REV_AT_EPOCH":21963,"BSTAR":0.00060630143,"MEAN_MOTION_DOT":2.38e-6,"MEAN_MOTION_DDOT":0},{"OBJECT_NAME":"ONEWEB-0185","OBJECT_ID":"2021-031L","EPOCH":"2025-11-10T18:14:07.605600","MEAN_MOTION":13.14502548,"ECCENTRICITY":0.00016422,"INCLINATION":87.8997,"RA_OF_ASC_NODE":333.204,"ARG_OF_PERICENTER":80.2551,"MEAN_ANOMALY":279.8764,"EPHEMERIS_TYPE":0,"CLASSIFICATION_TYPE":"U","NORAD_CAT_ID":48220,"ELEMENT_SET_NO":999,"REV_AT_EPOCH":21955,"BSTAR":-8.0725494e-5,"MEAN_MOTION_DOT":-1.7e-7,"MEAN_MOTION_DDOT":0},{"OBJECT_NAME":"ONEWEB-0187","OBJECT_ID":"2021-031M","EPOCH":"2025-11-10T19:34:58.271808","MEAN_MOTION":13.14500681,"ECCENTRICITY":0.00018535,"INCLINATION":87.8991,"RA_OF_ASC_NODE":333.2382,"ARG_OF_PERICENTER":83.2656,"MEAN_ANOMALY":276.8685,"EPHEMERIS_TYPE":0,"CLASSIFICATION_TYPE":"U","NORAD_CAT_ID":48221,"ELEMENT_SET_NO":999,"REV_AT_EPOCH":21957,"BSTAR":0.00050835474,"MEAN_MOTION_DOT":2.01e-6,"MEAN_MOTION_DDOT":0},{"OBJECT_NAME":"ONEWEB-0192","OBJECT_ID":"2021-031N","EPOCH":"2025-11-10T20:41:23.288640","MEAN_MOTION":13.14504033,"ECCENTRICITY":0.00019034,"INCLINATION":87.8988,"RA_OF_ASC_NODE":333.2203,"ARG_OF_PERICENTER":92.1443,"MEAN_ANOMALY":267.9904,"EPHEMERIS_TYPE":0,"CLASSIFICATION_TYPE":"U","NORAD_CAT_ID":48222,"ELEMENT_SET_NO":999,"REV_AT_EPOCH":21949,"BSTAR":-0.00034689274,"MEAN_MOTION_DOT":-1.16e-6,"MEAN_MOTION_DDOT":0},{"OBJECT_NAME":"ONEWEB-0219","OBJECT_ID":"2021-031P","EPOCH":"2025-11-10T20:11:41.786304","MEAN_MOTION":13.14500947,"ECCENTRICITY":0.00017512,"INCLINATION":87.8995,"RA_OF_ASC_NODE":333.1995,"ARG_OF_PERICENTER":84.0278,"MEAN_ANOMALY":276.1052,"EPHEMERIS_TYPE":0,"CLASSIFICATION_TYPE":"U","NORAD_CAT_ID":48223,"ELEMENT_SET_NO":999,"REV_AT_EPOCH":21969,"BSTAR":-0.00022019404,"MEAN_MOTION_DOT":-6.9e-7,"MEAN_MOTION_DDOT":0},{"OBJECT_NAME":"ONEWEB-0202","OBJECT_ID":"2021-031Q","EPOCH":"2025-11-10T23:23:33.057888","MEAN_MOTION":13.14503637,"ECCENTRICITY":0.0002523,"INCLINATION":87.8991,"RA_OF_ASC_NODE":333.1867,"ARG_OF_PERICENTER":83.8905,"MEAN_ANOMALY":276.2512,"EPHEMERIS_TYPE":0,"CLASSIFICATION_TYPE":"U","NORAD_CAT_ID":48224,"ELEMENT_SET_NO":999,"REV_AT_EPOCH":21969,"BSTAR":0.00036137606,"MEAN_MOTION_DOT":1.47e-6,"MEAN_MOTION_DDOT":0},{"OBJECT_NAME":"ONEWEB-0204","OBJECT_ID":"2021-031R","EPOCH":"2025-11-10T18:43:47.981280","MEAN_MOTION":13.14500768,"ECCENTRICITY":0.00015366,"INCLINATION":87.8994,"RA_OF_ASC_NODE":333.2134,"ARG_OF_PERICENTER":92.9145,"MEAN_ANOMALY":267.2161,"EPHEMERIS_TYPE":0,"CLASSIFICATION_TYPE":"U","NORAD_CAT_ID":48225,"ELEMENT_SET_NO":999,"REV_AT_EPOCH":21956,"BSTAR":-0.00080662629,"MEAN_MOTION_DOT":-2.86e-6,"MEAN_MOTION_DDOT":0},{"OBJECT_NAME":"ONEWEB-0205","OBJECT_ID":"2021-031S","EPOCH":"2025-11-10T23:37:13.150272","MEAN_MOTION":13.14501931,"ECCENTRICITY":0.00017901,"INCLINATION":87.8999,"RA_OF_ASC_NODE":333.1663,"ARG_OF_PERICENTER":87.0663,"MEAN_ANOMALY":273.0672,"EPHEMERIS_TYPE":0,"CLASSIFICATION_TYPE":"U","NORAD_CAT_ID":48226,"ELEMENT_SET_NO":999,"REV_AT_EPOCH":21960,"BSTAR":-5.541897e-6,"MEAN_MOTION_DOT":1.1e-7,"MEAN_MOTION_DDOT":0}]
